[{"OBJECT_NAME":"STARLINK-2448","OBJECT_ID":"2021-027V","EPOCH":"2026-03-09T13:14:24.830592","MEAN_MOTION":15.30774816,"ECCENTRICITY":0.00017445,"INCLINATION":53.1602,"RA_OF_ASC_NODE":155.5804,"ARG_OF_PERICENTER":65.6838,"MEAN_ANOMALY":294.4345,"EPHEMERIS_TYPE":0,"CLASSIFICATION_TYPE":"U","NORAD_CAT_ID":48111,"ELEMENT_SET_NO":999,"REV_AT_EPOCH":27264,"BSTAR":0.0018961024,"MEAN_MOTION_DOT":0.00057247,"MEAN_MOTION_DDOT":0},{"OBJECT_NAME":"OBJECT D","OBJECT_ID":"2024-092D","EPOCH":"2026-03-09T21:12:33.501312","MEAN_MOTION":15.33078357,"ECCENTRICITY":0.00083397,"INCLINATION":97.6418,"RA_OF_ASC_NODE":198.2302,"ARG_OF_PERICENTER":141.9853,"MEAN_ANOMALY":218.1979,"EPHEMERIS_TYPE":0,"CLASSIFICATION_TYPE":"U","NORAD_CAT_ID":59776,"ELEMENT_SET_NO":999,"REV_AT_EPOCH":10051,"BSTAR":0.00076511005,"MEAN_MOTION_DOT":0.00024443,"MEAN_MOTION_DDOT":0}]
